[{"OBJECT_NAME":"JILIN-1 05","OBJECT_ID":"2017-074B","EPOCH":"2026-03-09T21:56:30.612480","MEAN_MOTION":15.3245271,"ECCENTRICITY":0.00045948,"INCLINATION":97.4781,"RA_OF_ASC_NODE":173.8936,"ARG_OF_PERICENTER":206.4038,"MEAN_ANOMALY":153.6971,"EPHEMERIS_TYPE":0,"CLASSIFICATION_TYPE":"U","NORAD_CAT_ID":43023,"ELEMENT_SET_NO":999,"REV_AT_EPOCH":45879,"BSTAR":0.00026108793,"MEAN_MOTION_DOT":8.104e-5,"MEAN_MOTION_DDOT":0},{"OBJECT_NAME":"STARLINK-33640","OBJECT_ID":"2025-063R","EPOCH":"2026-03-09T23:12:48.162240","MEAN_MOTION":15.30224928,"ECCENTRICITY":0.00014669,"INCLINATION":53.1593,"RA_OF_ASC_NODE":51.0475,"ARG_OF_PERICENTER":94.1768,"MEAN_ANOMALY":265.94,"EPHEMERIS_TYPE":0,"CLASSIFICATION_TYPE":"U","NORAD_CAT_ID":63378,"ELEMENT_SET_NO":999,"REV_AT_EPOCH":5480,"BSTAR":0.0014810129,"MEAN_MOTION_DOT":0.00043797,"MEAN_MOTION_DDOT":0}]
